OBJECT_NAME,OBJECT_ID,EPOCH,MEAN_MOTION,ECCENTRICITY,INCLINATION,RA_OF_ASC_NODE,ARG_OF_PERICENTER,MEAN_ANOMALY,EPHEMERIS_TYPE,CLASSIFICATION_TYPE,NORAD_CAT_ID,ELEMENT_SET_NO,REV_AT_EPOCH,BSTAR,MEAN_MOTION_DOT,MEAN_MOTION_DDOT
OSCAR 7 (AO-7),1974-089B,2026-06-28T15:30:34.905312,12.53698301,.00126465,101.9899,193.0123,108.8638,8.4309,0,U,7530,999,36195,.12546905E-3,-.26E-6,0
PHASE 3B (AO-10),1983-058B,2026-06-26T14:17:11.121504,2.05872938,.60076223,25.9202,218.0092,118.2548,314.1516,0,U,14129,999,29568,0,-.217E-5,0
UOSAT 2 (UO-11),1984-021B,2026-06-28T11:56:22.686720,14.90810480,.00085864,97.8063,144.9461,137.7568,222.4313,0,U,14781,999,25881,.13063697E-3,.123E-4,0
LUSAT (LO-19),1990-005G,2026-06-28T14:58:35.623488,14.34126405,.00117829,98.8846,201.7446,167.3246,192.8236,0,U,20442,999,90403,.55609078E-4,.109E-5,0
EYESAT A (AO-27),1993-061C,2026-06-28T14:34:24.058560,14.30945069,.00094499,98.6877,247.0164,70.3201,289.9000,0,U,22825,999,70863,.49415824E-4,.85E-6,0
ITAMSAT (IO-26),1993-061D,2026-06-28T10:38:31.665984,14.31372224,.00098194,98.6825,246.7713,55.6021,304.6089,0,U,22826,999,70892,.50751671E-4,.9E-6,0
RADIO ROSTO (RS15),1994-085A,2026-06-28T13:21:53.903232,11.27583402,.01563277,64.8176,284.8288,1.7770,358.3679,0,U,23439,999,29718,-.43211157E-4,-.44E-6,0
JAS-2 (FO-29),1996-046B,2026-06-28T13:10:37.635744,13.53274843,.03508692,98.5229,26.8641,67.0358,296.7398,0,U,24278,999,47470,.14056145E-4,-.19E-6,0
TECHSAT 1B (GO-32),1998-043D,2026-06-28T14:01:17.800320,14.24430518,.00016214,99.0072,172.6305,141.9335,218.1958,0,U,25397,999,45295,.41976786E-4,.5E-6,0
ISS (ZARYA),1998-067A,2026-06-28T12:59:37.480128,15.49467065,.00042596,51.6322,243.8877,242.8085,117.2470,0,U,25544,999,57351,.11309881E-3,.5887E-4,0
PCSAT (NO-44),2001-043C,2026-06-28T13:03:30.145824,14.31959587,.00060398,67.0491,214.8978,265.3473,94.6939,0,U,26931,999,29207,.6516455E-4,.92E-6,0
SAUDISAT 1C (SO-50),2002-058C,2026-06-28T11:36:44.306496,14.83069301,.00749952,64.5520,94.0340,260.3690,98.8938,0,U,27607,999,26613,.12163902E-3,.884E-5,0
CUTE-1 (CO-55),2003-031E,2026-06-28T11:42:06.909408,14.24342303,.00102213,98.6736,187.9043,146.4668,213.7159,0,U,27844,999,19328,.13667046E-3,.272E-5,0
CUBESAT XI-IV (CO-57),2003-031J,2026-06-28T13:14:52.243584,14.23626546,.00097074,98.6768,187.6716,163.9321,196.2167,0,U,27848,999,19299,.11941018E-3,.229E-5,0
MOZHAETS 4 (RS22),2003-042A,2026-06-28T15:00:49.786272,14.73486907,.00101138,98.3468,4.3078,228.5620,219.2761,0,U,27939,999,21723,.16298607E-3,.1005E-4,0
CUBESAT XI-V,2005-043F,2026-06-28T09:50:08.876544,14.72660646,.00144162,98.2995,335.2678,165.2148,194.9483,0,U,28895,999,10340,.23032949E-3,.1417E-4,0
CUTE-1.7+APD II (CO-65),2008-021C,2026-06-28T14:01:06.962304,15.09555814,.00085947,97.8271,161.2403,2.5543,357.5728,0,U,32785,999,98691,.27820726E-3,.4402E-4,0
SEEDS II (CO-66),2008-021J,2026-06-28T11:50:54.554208,15.33128545,.00009102,97.7514,177.9337,202.7139,157.4063,0,U,32791,999,98902,.51759114E-3,.16499E-3,0
YUBILEINY (RS30),2008-025A,2026-06-28T14:33:49.629888,12.43179989,.00185228,82.5042,348.3353,287.5516,72.3540,0,U,32953,999,82111,.49707431E-4,.17E-6,0
KKS-1 (KISEKI),2009-002H,2026-06-28T14:10:47.021664,14.83151291,.0006418,98.1186,102.2138,250.5573,109.4947,0,U,33499,999,93788,.15915443E-3,.1242E-4,0
SWISSCUBE,2009-051B,2026-06-27T23:29:06.641376,14.62500860,.00067468,98.4028,87.0546,167.8214,192.3151,0,U,35932,999,89073,.19746654E-3,.952E-5,0
BEESAT-1,2009-051C,2026-06-28T11:20:47.620896,14.61737456,.00049765,98.3955,87.1691,177.6025,182.5200,0,U,35933,999,89083,.16788935E-3,.788E-5,0
ITUPSAT1,2009-051E,2026-06-28T13:00:34.167168,14.60456331,.0006875,98.4040,86.4193,194.0038,166.0972,0,U,35935,999,89039,.15671078E-3,.711E-5,0
XIWANG-1 (HOPE-1),2009-072B,2026-06-28T13:37:33.712320,13.16437613,.00071053,100.4024,133.2184,203.5787,156.5002,0,U,36122,999,79450,-.10997773E-2,-.464E-5,0
O/OREOS (USA 219),2010-062C,2026-06-28T09:07:05.355840,14.93789474,.00129879,71.9713,54.9856,39.1216,321.0891,0,U,37224,999,11831,.2025377E-3,.2089E-4,0
JUGNU,2011-058B,2026-06-28T12:48:23.131584,14.13779476,.00184121,19.9595,239.4959,201.2516,297.0567,0,U,37839,999,76063,.70931175E-4,.403E-5,0
SRMSAT,2011-058D,2026-06-28T12:39:27.569952,14.11577807,.00117412,19.9735,350.8310,329.1506,73.8720,0,U,37841,999,75942,.59605421E-4,.375E-5,0
STRAND-1,2013-009E,2026-06-28T11:22:30.189792,14.37169747,.00083684,98.3923,359.4306,189.1817,170.9218,0,U,39090,999,69868,.10710109E-3,.276E-5,0
ZACUBE-1 (TSHEPISOSAT),2013-066B,2026-06-28T11:19:32.858976,15.01247947,.00423794,97.8045,141.8666,209.3723,150.5119,0,U,39417,999,68242,.21104491E-3,.2698E-4,0
GOMX-1,2013-066Q,2026-06-28T15:00:39.000960,14.69498597,.01296614,97.6480,19.3665,41.2345,319.8567,0,U,39430,999,67159,.27794418E-3,.1824E-4,0
